{
  "norad_id": 43632,
  "name": "AZERSPACE 2 (IS-38)",
  "history": [
    {
      "epoch": "2026-03-28T04:43:55.714368Z",
      "apogee_km": 35793.047858769256,
      "perigee_km": 35780.79469283431,
      "latitude_deg": 0.03968730283668777,
      "longitude_deg": 45.125816789074946,
      "height_km": 35783.55110770011,
      "semi_major_axis_km": 42165.058275801784,
      "eccentricity": 0.0001453,
      "inclination_deg": 0.0236,
      "raan_deg": 182.15,
      "arg_perigee_deg": 181.9838,
      "mean_anomaly_deg": 297.5867,
      "mean_motion_rev_day": 1.00270621
    },
    {
      "epoch": "2026-03-29T02:58:45.132672Z",
      "apogee_km": 35793.022053195986,
      "perigee_km": 35780.99655347027,
      "latitude_deg": 0.036305262906925255,
      "longitude_deg": 45.109637425220065,
      "height_km": 35785.34246694133,
      "semi_major_axis_km": 42165.14630333313,
      "eccentricity": 0.0001426,
      "inclination_deg": 0.0198,
      "raan_deg": 221.0109,
      "arg_perigee_deg": 134.2853,
      "mean_anomaly_deg": 281.029,
      "mean_motion_rev_day": 1.00270307
    },
    {
      "epoch": "2026-03-30T02:56:21.143616Z",
      "apogee_km": 35793.339911066185,
      "perigee_km": 35780.95175097043,
      "latitude_deg": 0.050340496217198286,
      "longitude_deg": 45.122661878375084,
      "height_km": 35786.816138798655,
      "semi_major_axis_km": 42165.28283101831,
      "eccentricity": 0.0001469,
      "inclination_deg": 0.0257,
      "raan_deg": 199.5038,
      "arg_perigee_deg": 169.0168,
      "mean_anomaly_deg": 268.2038,
      "mean_motion_rev_day": 1.0026982
    },
    {
      "epoch": "2026-03-30T04:38:56.305536Z",
      "apogee_km": 35793.325594184564,
      "perigee_km": 35780.950929200764,
      "latitude_deg": 0.04850962123539321,
      "longitude_deg": 45.12370765142779,
      "height_km": 35784.16083526547,
      "semi_major_axis_km": 42165.27526169267,
      "eccentricity": 0.00014674,
      "inclination_deg": 0.0256,
      "raan_deg": 199.4517,
      "arg_perigee_deg": 169.7548,
      "mean_anomaly_deg": 293.2344,
      "mean_motion_rev_day": 1.00269847
    },
    {
      "epoch": "2026-03-30T05:49:38.496288Z",
      "apogee_km": 35793.314641944664,
      "perigee_km": 35780.95347108173,
      "latitude_deg": 0.04152326904629152,
      "longitude_deg": 45.1259071524069,
      "height_km": 35782.63103820258,
      "semi_major_axis_km": 42165.2710565132,
      "eccentricity": 0.00014658,
      "inclination_deg": 0.0255,
      "raan_deg": 199.3413,
      "arg_perigee_deg": 170.9733,
      "mean_anomaly_deg": 309.8502,
      "mean_motion_rev_day": 1.00269862
    }
  ]
}